51P-A/Harrington,e,5.4258,83.6766,269.2562,3.708057,0.1380335,0.54346483,307.5543,09/19.0/2021,2000,g 10.0,8.0
# From NK 3013
51P-D/Harrington,e,5.4265,83.6615,269.2948,3.707068,0.1380888,0.54339469,307.8306,09/19.0/2021,2000,g 16.0,8.0
# From MPEC 2021-R75
52P/Harrington-Abell,e,10.2317,336.8379,139.5943,3.864147,0.1297548,0.54007172,357.8990,09/19.0/2021,2000,g 13.5,6.0
# From MPC100283
53P/Van Biesbroeck,e,6.6096,148.8103,134.4899,5.427981,0.0779375,0.55170757,153.3151,09/19.0/2021,2000,g  7.7,4.8
# From MPC 89011
54P/de Vico-Swift-NEAT,e,6.0645,358.8165,1.7897,3.791201,0.1335177,0.42611354,215.7168,09/19.0/2021,2000,g  9.0,4.0
# From MPC 31070
55P/Tempel-Tuttle,e,162.4411,235.4082,172.4975,10.35532,0.0295773,0.90604878,255.6380,09/19.0/2021,2000,g  9.0,4.0
# From MPC101100
56P/Slaughter-Burnham,e,8.1613,345.9961,43.9790,5.068902,0.0863641,0.50770286,162.9830,09/19.0/2021,2000,g  8.5,6.0
# From MPEC 2021-R75
57P/duToit-Neujmin-Delporte,e,2.8509,188.7756,115.2622,3.446801,0.1540210,0.50095442,355.6223,09/19.0/2021,2000,g 12.5,6.0
# From MPEC 2021-O56
58P/Jackson-Neujmin,e,13.1085,159.0750,200.4879,4.085381,0.1193590,0.66278961,57.2199,09/19.0/2021,2000,g 15.5,6.0
# From MPEC 2021-F20
59P/Kearns-Kwee,e,9.3414,312.8321,127.5228,4.486468,0.1037163,0.47523077,113.9360,09/19.0/2021,2000,g  7.0,6.0
# From MPEC 2021-F20
60P/Tsuchinshan,e,3.5871,267.5273,216.9712,3.523825,0.1489987,0.53446131,151.2180,09/19.0/2021,2000,g 11.5,6.0
# From MPEC 2015-Q71
61P/Shajn-Schaldach,e,5.9989,162.9743,221.8054,3.687855,0.1391693,0.42397470,304.3037,09/19.0/2021,2000,g  6.0,10.0
# From MPC109147
62P/Tsuchinshan,e,4.7493,69.2002,47.1577,3.357114,0.1602341,0.62809552,227.6663,09/19.0/2021,2000,g  8.0,10.0
# From MPC 84320
63P/Wild,e,19.7277,358.0184,169.0833,5.607299,0.0742290,0.64883562,229.5239,09/19.0/2021,2000,g 10.5,6.0
# From MPEC 2021-F20
64P/Swift-Gehrels,e,8.9497,299.9888,97.0710,4.453361,0.1048751,0.68809374,110.0818,09/19.0/2021,2000,g 13.4,4.0
# From MPEC 2021-F20
65P/Gunn,e,9.1784,62.0141,213.8928,3.886375,0.1286432,0.24928232,184.2629,09/19.0/2021,2000,g 11.2,4.0
# From MPEC 2021-F20
66P/duToit,e,18.6464,21.8173,257.4054,6.067494,0.0659462,0.78662194,80.3868,09/19.0/2021,2000,g 15.0,4.0
# From MPEC 2021-R75
67P/Churyumov-Gerasimenko,e,3.8715,36.3332,22.1311,3.456226,0.1533914,0.64972552,353.2415,09/19.0/2021,2000,g 11.0,4.0
# From MPC 75716
68P/Klemola,e,11.1106,175.0559,153.1576,4.954522,0.0893720,0.63764538,60.7582,09/19.0/2021,2000,g 10.0,4.0
# From MPC114607
69P/Taylor,e,22.0347,104.8231,343.4291,3.886847,0.1286198,0.41317954,117.8054,09/19.0/2021,2000,g  9.5,12.0
# From MPEC 2021-R75
70P/Kojima,e,6.5981,119.2683,1.8309,3.677437,0.1397611,0.45369624,353.6939,09/19.0/2021,2000,g 11.0,6.0
# From MPC107051
71P/Clark,e,9.4376,59.4101,209.0595,3.138249,0.1772854,0.49388816,273.2038,09/19.0/2021,2000,g  9.8,6.0
# From MPC 89011
72P/Denning-Fujikawa,e,10.9441,26.6937,346.6949,4.310360,0.1101371,0.81849676,290.0694,09/19.0/2021,2000,g 17.5,10.0
# From MPC106348
73P/Schwassmann-Wachmann,e,11.2282,69.6232,199.4753,3.092734,0.1812134,0.68547257,298.2656,09/19.0/2021,2000,g 11.5,6.0
# From MPC106348
73P-T/Schwassmann-Wachmann,e,11.2303,69.6258,199.4567,3.094298,0.1810759,0.68567493,298.0408,09/19.0/2021,2000,g 11.5,6.0
# From MPC xxxxx
74P/Smirnova-Chernykh,e,6.0455,69.0170,112.9644,4.362456,0.1081702,0.14226345,132.3509,09/19.0/2021,2000,g 11.3,4.0
# From MPEC 2021-F20
76P/West-Kohoutek-Ikemura,e,30.4619,84.1135,359.9586,3.472193,0.1523345,0.53818298,105.7135,09/19.0/2021,2000,g 15.5,4.0
# From MPC100283
77P/Longmore,e,24.3184,14.7765,196.8210,3.622247,0.1429674,0.35195807,279.7462,09/19.0/2021,2000,g  7.0,8.0
# From MPEC 2021-O56
78P/Gehrels,e,6.2523,210.5171,192.6333,3.738495,0.1363511,0.46222837,122.7179,09/19.0/2021,2000,g  5.5,8.0
# From MPC 94675
79P/du Toit-Hartley,e,3.1479,280.5319,281.7908,2.943025,0.1952149,0.61882479,215.2113,09/19.0/2021,2000,g 16.0,4.0
# From MPEC 2014-P41
80P/Peters-Hartley,e,29.9274,259.8125,339.2516,4.024308,0.1220864,0.59874311,305.5687,09/19.0/2021,2000,g  9.0,4.0
# From MPEC 2021-R75
81P/Wild,e,3.2368,136.0961,41.6700,3.452062,0.1536690,0.53704718,290.4333,09/19.0/2021,2000,g  7.0,6.0
# From MPC133426
82P/Gehrels,e,1.1288,239.3090,226.6057,4.134925,0.1172203,0.12170284,138.6265,09/19.0/2021,2000,g 15.0,4.0
# From MPEC 2020-FB5
84P/Giclas,e,7.5515,108.1715,281.5744,3.549213,0.1474029,0.51579305,69.5891,09/19.0/2021,2000,g  9.5,8.0
# From MPC109147
86P/Wild,e,15.4746,72.3574,179.3957,3.601743,0.1441900,0.37233468,339.5866,09/19.0/2021,2000,g 11.0,6.0
# From MPEC 2020-SI8
87P/Bus,e,2.6139,181.6164,25.4934,3.449490,0.1538409,0.39098348,76.3634,09/19.0/2021,2000,g  7.2,10.0
# From MPEC 2021-R75
88P/Howell,e,4.3835,56.6799,235.9037,3.105174,0.1801254,0.56419425,64.3838,09/19.0/2021,2000,g 11.0,6.0
# From MPC100283
89P/Russell,e,12.0695,41.3715,250.3619,3.753861,0.1355148,0.40853550,235.4456,09/19.0/2021,2000,g 11.5,6.0
# From MPC107051
90P/Gehrels,e,9.6484,13.2049,29.0555,6.052107,0.0661979,0.51031041,102.7604,09/19.0/2021,2000,g  8.5,6.0
# From MPEC 2021-R75
91P/Russell,e,14.0811,247.7762,354.9662,3.897056,0.1281147,0.33163772,40.1148,09/19.0/2021,2000,g  7.5,6.0
# From MPEC 2014-J58
92P/Sanguin,e,19.5006,181.3657,163.7620,5.344003,0.0797818,0.66100524,190.6736,09/19.0/2021,2000,g 12.0,6.0
# From NK 2707
93P/Lovas,e,12.2037,339.6502,74.8047,4.382287,0.1074367,0.61275881,178.6528,09/19.0/2021,2000,g  9.0,4.0
# From MPEC 2020-W26
94P/Russell,e,6.1880,70.8583,92.4537,3.507532,0.1500382,0.36496825,268.5763,09/19.0/2021,2000,g  9.0,6.0
# From MPC 75717
95P/Chiron,e,6.9278,209.2809,339.6774,13.70388,0.0194285,0.37693274,182.2972,09/19.0/2021,2000,g  6.5,2.0
# From MPEC 2017-T14
96P/Machholz,e,57.5466,93.9785,14.7453,3.028634,0.1869967,0.96157703,266.6569,09/19.0/2021,2000,g  9.0,4.0
# From MPC 77020
97P/Metcalf-Brewington,e,17.9510,184.0768,229.9442,4.761032,0.0948751,0.46014598,345.8207,09/19.0/2021,2000,g  5.5,6.0
# From MPEC 2013-H38
98P/Takamizawa,e,10.5601,114.7034,157.8785,3.798602,0.1331277,0.56236531,34.2324,09/19.0/2021,2000,g  9.0,8.0
# From MPEC 2021-L04
99P/Kowal,e,4.3392,28.1034,174.9633,6.108154,0.0652889,0.22955709,346.5553,09/19.0/2021,2000,g  4.5,6.0
# From MPEC 2013-O31
100P/Hartley,e,25.5645,37.6945,181.9871,3.432431,0.1549892,0.41227703,309.4755,09/19.0/2021,2000,g  9.0,4.0
# From MPEC 2020-FB5
101P/Chernykh,e,5.0525,116.2279,277.7057,5.803883,0.0704898,0.59605129,43.3742,09/19.0/2021,2000,g 10.0,4.8
# From MPC 86232
102P/Shoemaker,e,25.8849,339.3650,20.5564,3.813175,0.1323653,0.45712488,31.7109,09/19.0/2021,2000,g  6.5,8.0
# From MPEC 2018-HA5
103P/Hartley,e,13.6037,219.7349,181.2819,3.475957,0.1520871,0.69336303,245.3669,09/19.0/2021,2000,g  8.5,8.0
# From MPEC 2021-R75
104P/Kowal,e,5.7012,207.2239,227.2421,3.207785,0.1715522,0.66542733,340.3296,09/19.0/2021,2000,g 16.0,4.0
# From MPC109147
105P/Singer Brewster,e,9.1697,192.4078,46.4875,3.467712,0.1526299,0.40932405,173.4785,09/19.0/2021,2000,g 11.5,6.0
# From MPEC 2021-P47
106P/Schuster,e,19.5364,48.8859,353.6678,3.762177,0.1350658,0.59368501,4.2180,09/19.0/2021,2000,g 14.0,4.8
# From MPEC 2015-M77
107P/Wilson-Harrington,e,2.7989,266.7860,95.4210,2.625037,0.2317399,0.63164649,281.2830,09/19.0/2021,2000,g  9.0,4.0
# From MPEC 2021-P47
108P/Ciffreo,e,11.4379,50.2922,354.4145,3.737890,0.1363842,0.55582308,1.2161,09/19.0/2021,2000,g  8.0,12.0
# From  105, 420
109P/Swift-Tuttle,e,113.9900,139.0369,152.9295,26.15150,0.0073699,0.96278731,77.4986,09/19.0/2021,2000,g  4.0,6.0
# From MPEC 2021-R75
110P/Hartley,e,11.7070,287.5351,167.4460,3.601918,0.1441795,0.31821795,355.7748,09/19.0/2021,2000,g  1.0,12.0
# From MPC 75718
111P/Helin-Roman-Crockett,e,4.2267,89.7663,0.9769,4.147871,0.1166719,0.10614015,11.1379,09/19.0/2021,2000,g  5.0,8.0
# From MPEC 2021-F20
112P/Urata-Niijima,e,24.1992,31.8335,21.4767,3.525369,0.1489008,0.58998538,87.6979,09/19.0/2021,2000,g 15.3,4.0
# From MPEC 2021-P47
113P/Spitaler,e,5.2914,306.6943,115.4305,3.695492,0.1387381,0.42037154,324.5922,09/19.0/2021,2000,g 13.5,4.0
# From MPEC 2021-N06
114P/Wiseman-Skiff,e,18.2744,271.0468,172.7628,3.544808,0.1476777,0.55480945,90.6685,09/19.0/2021,2000,g 11.5,6.0
# From MPEC 2020-SI8
115P/Maury,e,11.6775,176.0096,120.9792,4.272050,0.1116220,0.51852778,46.4801,09/19.0/2021,2000,g 10.5,6.0
# From MPEC 2021-R75
116P/Wild,e,3.6035,20.9837,173.3270,3.490148,0.1511605,0.37059884,314.4944,09/19.0/2021,2000,g  2.5,10.0
# From MPEC 2021-R75
117P/Helin-Roman-Alu,e,8.7032,58.8413,222.8891,4.083891,0.1194243,0.25564167,325.1854,09/19.0/2021,2000,g  2.5,8.0
# From MPEC 2021-N06
118P/Shoemaker-Levy,e,10.0962,142.1127,314.5865,3.355625,0.1603407,0.45444049,290.9570,09/19.0/2021,2000,g 12.0,4.0
# From MPEC 2021-P47
119P/Parker-Hartley,e,7.3952,104.6196,321.8793,3.811595,0.1324475,0.38921468,316.7581,09/19.0/2021,2000,g  3.5,8.0
# From MPEC 2020-SI8
120P/Mueller,e,8.4899,358.6730,36.5725,3.961939,0.1249806,0.37457165,16.8488,09/19.0/2021,2000,g 12.0,4.0
# From MPEC 2020-SI8
121P/Shoemaker-Holt,e,20.1633,94.1227,11.4234,4.584394,0.1004110,0.18577367,295.0910,09/19.0/2021,2000,g  6.5,8.0
# From MPC 75718
122P/de Vico,e,85.0256,79.5724,13.0027,17.62533,0.0133198,0.96225365,126.6237,09/19.0/2021,2000,g  7.5,5.2
# From MPEC 2021-F20
123P/West-Hartley,e,15.2866,46.0818,103.9760,3.875985,0.1291609,0.44630009,123.7016,09/19.0/2021,2000,g 12.2,4.0
# From MPEC 2021-F20
124P/Mrkos,e,31.5475,0.2803,184.1081,3.323474,0.1626731,0.50335628,82.9469,09/19.0/2021,2000,g 15.2,4.0
# From MPEC 2015-M77
125P/Spacewatch,e,9.9866,153.1462,87.2398,3.126227,0.1783090,0.51252874,199.4827,09/19.0/2021,2000,g  9.0,4.0
# From MPC 66205
126P/IRAS,e,45.8736,357.8681,356.5372,5.638928,0.0736053,0.69634460,311.8398,09/19.0/2021,2000,g  9.0,4.0
# From MPC 84321
127P/Holt-Olmstead,e,14.2964,13.6261,6.4235,3.452789,0.1536204,0.35997797,309.9354,09/19.0/2021,2000,g 11.0,6.0
# From MPC 89014
128P/Shoemaker-Holt,e,4.3682,214.3022,210.2820,4.491480,0.1035428,0.32093544,177.4341,09/19.0/2021,2000,g  8.5,4.0
# From MPEC 2019-TG9
